STARLINK-31681          
1 59746U 24090S   26068.57999602 -.00000958  00000+0 -25270-4 0  9998
2 59746  43.0005 177.1655 0001270 261.5007  98.5701 15.27594916103506
YAOGAN-43 01D           
1 60461U 24148D   26068.43560480  .00010676  00000+0  37766-3 0  9999
2 60461  35.0010  61.7102 0002556 326.2473  33.8080 15.28369377 87008
